{
  "type": "FeatureCollection",
  "features": [
    {
      "type": "Feature",
      "properties": {
        "norad_id": 33655,
        "name": "FENGYUN 1C DEB",
        "group": "fengyun-1c-debris",
        "lat": 72.46441210929034,
        "lon": 38.110629047807684,
        "alt_km": 581.8506137060522,
        "timestamp": "2025-12-26T11:25:45.480228+00:00",
        "meta_object_name": "FENGYUN 1C DEB",
        "meta_object_id": "1999-025DEQ",
        "meta_epoch": "2025-12-25T15:51:47.177280",
        "meta_mean_motion": 14.98228574,
        "meta_eccentricity": 0.00462851,
        "meta_inclination": 98.7992,
        "meta_ra_of_asc_node": 66.5471,
        "meta_arg_of_pericenter": 316.1929,
        "meta_mean_anomaly": 43.5622,
        "meta_ephemeris_type": 0,
        "meta_classification_type": "U",
        "meta_norad_cat_id": 33655,
        "meta_element_set_no": 999,
        "meta_rev_at_epoch": 96751,
        "meta_bstar": 0.001860165,
        "meta_mean_motion_dot": 0.00022573,
        "meta_mean_motion_ddot": 0,
        "tle_line1": "1 33655U 99025DEQ 25359.66096270  .00022573  00000+0  18602-2 0  9994",
        "tle_line2": "2 33655  98.7992  66.5471 0046285 316.1929  43.5622 14.98228574967513"
      },
      "geometry": {
        "type": "Point",
        "coordinates": [
          38.110629047807684,
          72.46441210929034
        ]
      }
    },
    {
      "type": "Feature",
      "properties": {
        "norad_id": 33656,
        "name": "FENGYUN 1C DEB",
        "group": "fengyun-1c-debris",
        "lat": 74.74518147325966,
        "lon": -40.42877894266636,
        "alt_km": 803.5322394477489,
        "timestamp": "2025-12-26T11:25:45.480237+00:00",
        "meta_object_name": "FENGYUN 1C DEB",
        "meta_object_id": "1999-025DER",
        "meta_epoch": "2025-12-26T04:19:12.109728",
        "meta_mean_motion": 14.22759171,
        "meta_eccentricity": 0.0089897,
        "meta_inclination": 98.5793,
        "meta_ra_of_asc_node": 352.893,
        "meta_arg_of_pericenter": 352.4674,
        "meta_mean_anomaly": 7.5149,
        "meta_ephemeris_type": 0,
        "meta_classification_type": "U",
        "meta_norad_cat_id": 33656,
        "meta_element_set_no": 999,
        "meta_rev_at_epoch": 62900,
        "meta_bstar": 0.00044155,
        "meta_mean_motion_dot": 9.89e-06,
        "meta_mean_motion_ddot": 0,
        "tle_line1": "1 33656U 99025DER 25360.18000127  .00000989  00000+0  44155-3 0  9990",
        "tle_line2": "2 33656  98.5793 352.8930 0089897 352.4674   7.5149 14.22759171629000"
      },
      "geometry": {
        "type": "Point",
        "coordinates": [
          -40.42877894266636,
          74.74518147325966
        ]
      }
    },
    {
      "type": "Feature",
      "properties": {
        "norad_id": 33658,
        "name": "FENGYUN 1C DEB",
        "group": "fengyun-1c-debris",
        "lat": 43.13635128328536,
        "lon": 144.3417922275659,
        "alt_km": 1062.5579333574506,
        "timestamp": "2025-12-26T11:25:45.480246+00:00",
        "meta_object_name": "FENGYUN 1C DEB",
        "meta_object_id": "1999-025DET",
        "meta_epoch": "2025-12-24T16:54:27.352800",
        "meta_mean_motion": 13.6242826,
        "meta_eccentricity": 0.02819843,
        "meta_inclination": 99.5641,
        "meta_ra_of_asc_node": 151.691,
        "meta_arg_of_pericenter": 150.9506,
        "meta_mean_anomaly": 210.7661,
        "meta_ephemeris_type": 0,
        "meta_classification_type": "U",
        "meta_norad_cat_id": 33658,
        "meta_element_set_no": 999,
        "meta_rev_at_epoch": 58302,
        "meta_bstar": 0.0026956727,
        "meta_mean_motion_dot": 2.689e-05,
        "meta_mean_motion_ddot": 0,
        "tle_line1": "1 33658U 99025DET 25358.70448325  .00002689  00000+0  26957-2 0  9991",
        "tle_line2": "2 33658  99.5641 151.6910 0281984 150.9506 210.7661 13.62428260583027"
      },
      "geometry": {
        "type": "Point",
        "coordinates": [
          144.3417922275659,
          43.13635128328536
        ]
      }
    },
    {
      "type": "Feature",
      "properties": {
        "norad_id": 33660,
        "name": "FENGYUN 1C DEB",
        "group": "fengyun-1c-debris",
        "lat": 9.127130081788858,
        "lon": -90.64685010917395,
        "alt_km": 999.9336413308174,
        "timestamp": "2025-12-26T11:25:45.480254+00:00",
        "meta_object_name": "FENGYUN 1C DEB",
        "meta_object_id": "1999-025DEV",
        "meta_epoch": "2025-12-25T00:57:30.028896",
        "meta_mean_motion": 13.91785167,
        "meta_eccentricity": 0.01098948,
        "meta_inclination": 98.6573,
        "meta_ra_of_asc_node": 269.4147,
        "meta_arg_of_pericenter": 211.9347,
        "meta_mean_anomaly": 164.5297,
        "meta_ephemeris_type": 0,
        "meta_classification_type": "U",
        "meta_norad_cat_id": 33660,
        "meta_element_set_no": 999,
        "meta_rev_at_epoch": 91235,
        "meta_bstar": 0.00050571294,
        "meta_mean_motion_dot": 6.35e-06,
        "meta_mean_motion_ddot": 0,
        "tle_line1": "1 33660U 99025DEV 25359.03993089  .00000635  00000+0  50571-3 0  9992",
        "tle_line2": "2 33660  98.6573 269.4147 0109894 211.9347 164.5297 13.91785167912351"
      },
      "geometry": {
        "type": "Point",
        "coordinates": [
          -90.64685010917395,
          9.127130081788858
        ]
      }
    },
    {
      "type": "Feature",
      "properties": {
        "norad_id": 33663,
        "name": "FENGYUN 1C DEB",
        "group": "fengyun-1c-debris",
        "lat": -23.1273414307626,
        "lon": -3.4657772106150273,
        "alt_km": 633.25143409048,
        "timestamp": "2025-12-26T11:25:45.480263+00:00",
        "meta_object_name": "FENGYUN 1C DEB",
        "meta_object_id": "1999-025DEY",
        "meta_epoch": "2025-12-19T16:59:12.916032",
        "meta_mean_motion": 14.62420934,
        "meta_eccentricity": 0.0080658,
        "meta_inclination": 98.8853,
        "meta_ra_of_asc_node": 345.4244,
        "meta_arg_of_pericenter": 352.5038,
        "meta_mean_anomaly": 7.4949,
        "meta_ephemeris_type": 0,
        "meta_classification_type": "U",
        "meta_norad_cat_id": 33663,
        "meta_element_set_no": 999,
        "meta_rev_at_epoch": 64304,
        "meta_bstar": 0.0040155279,
        "meta_mean_motion_dot": 0.00021295,
        "meta_mean_motion_ddot": 0,
        "tle_line1": "1 33663U 99025DEY 25353.70778838  .00021295  00000+0  40155-2 0  9997",
        "tle_line2": "2 33663  98.8853 345.4244 0080658 352.5038   7.4949 14.62420934643048"
      },
      "geometry": {
        "type": "Point",
        "coordinates": [
          -3.4657772106150273,
          -23.1273414307626
        ]
      }
    },
    {
      "type": "Feature",
      "properties": {
        "norad_id": 33664,
        "name": "FENGYUN 1C DEB",
        "group": "fengyun-1c-debris",
        "lat": -35.42941647896589,
        "lon": -37.60582807260369,
        "alt_km": 983.7766830395813,
        "timestamp": "2025-12-26T11:25:45.480272+00:00",
        "meta_object_name": "FENGYUN 1C DEB",
        "meta_object_id": "1999-025DEZ",
        "meta_epoch": "2025-12-23T20:49:41.826144",
        "meta_mean_motion": 14.04001082,
        "meta_eccentricity": 0.0163596,
        "meta_inclination": 98.7022,
        "meta_ra_of_asc_node": 146.1506,
        "meta_arg_of_pericenter": 8.92,
        "meta_mean_anomaly": 351.4814,
        "meta_ephemeris_type": 0,
        "meta_classification_type": "U",
        "meta_norad_cat_id": 33664,
        "meta_element_set_no": 999,
        "meta_rev_at_epoch": 90895,
        "meta_bstar": 0.00020272,
        "meta_mean_motion_dot": 3.19e-06,
        "meta_mean_motion_ddot": 0,
        "tle_line1": "1 33664U 99025DEZ 25357.86784521  .00000319  00000+0  20272-3 0  9998",
        "tle_line2": "2 33664  98.7022 146.1506 0163596   8.9200 351.4814 14.04001082908951"
      },
      "geometry": {
        "type": "Point",
        "coordinates": [
          -37.60582807260369,
          -35.42941647896589
        ]
      }
    },
    {
      "type": "Feature",
      "properties": {
        "norad_id": 33665,
        "name": "FENGYUN 1C DEB",
        "group": "fengyun-1c-debris",
        "lat": -50.844087387445974,
        "lon": 129.1896666549228,
        "alt_km": 962.7084252025597,
        "timestamp": "2025-12-26T11:25:45.480281+00:00",
        "meta_object_name": "FENGYUN 1C DEB",
        "meta_object_id": "1999-025DFA",
        "meta_epoch": "2025-12-23T13:31:59.080800",
        "meta_mean_motion": 14.03682901,
        "meta_eccentricity": 0.04552643,
        "meta_inclination": 99.0215,
        "meta_ra_of_asc_node": 115.0384,
        "meta_arg_of_pericenter": 62.0717,
        "meta_mean_anomaly": 302.5771,
        "meta_ephemeris_type": 0,
        "meta_classification_type": "U",
        "meta_norad_cat_id": 33665,
        "meta_element_set_no": 999,
        "meta_rev_at_epoch": 92743,
        "meta_bstar": 0.00054568247,
        "meta_mean_motion_dot": 2.127e-05,
        "meta_mean_motion_ddot": 0,
        "tle_line1": "1 33665U 99025DFA 25357.56387825  .00002127  00000+0  54568-3 0  9996",
        "tle_line2": "2 33665  99.0215 115.0384 0455264  62.0717 302.5771 14.03682901927436"
      },
      "geometry": {
        "type": "Point",
        "coordinates": [
          129.1896666549228,
          -50.844087387445974
        ]
      }
    }
  ]
}